NORAD_CAT_ID,OBJECT_NAME,OBJECT_TYPE,EPOCH,MEAN_MOTION,ECCENTRICITY,INCLINATION,RA_OF_ASC_NODE,ARG_OF_PERICENTER,MEAN_ANOMALY,BSTAR,MEAN_MOTION_DOT,MEAN_MOTION_DDOT,TLE_LINE0,TLE_LINE1,TLE_LINE2,SEMIMAJOR_AXIS,PERIOD,APOGEE,PERIGEE,DECAYED
55653.0,STARLINK-5067,PAYLOAD,2024-01-29 03:12:26,14.98331959,0.00023,70.0025,327.1396,254.9016,105.1889,0.00010938,1.212e-05,0.0,0 STARLINK-5067,1 55653U 23021AB  24029.13364116  .00001212  00000-0  10938-3 0  9994,2 55653  70.0025 327.1396 0002300 254.9016 105.1889 14.98331959 53072,6950.187,96.107,573.65,570.453,0.0
55653.0,STARLINK-5067,PAYLOAD,2024-01-29 06:24:42,14.98333467,0.0002152,70.0029,326.8032,253.4717,106.6206,0.00014285,1.612e-05,0.0,0 STARLINK-5067,1 55653U 23021AB  24029.26715945  .00001612  00000-0  14285-3 0  9991,2 55653  70.0029 326.8032 0002152 253.4717 106.6206 14.98333467 53396,6950.182,96.107,573.543,570.551,0.0
55653.0,STARLINK-5067,PAYLOAD,2024-01-30 03:14:29,14.98280184,0.0001972,70.005,324.6143,259.8278,100.2659,0.00072128,8.512e-05,0.0,0 STARLINK-5067,1 55653U 23021AB  24030.13506449  .00008512  00000-0  72128-3 0  9992,2 55653  70.0050 324.6143 0001972 259.8278 100.2659 14.98280184 53221,6950.347,96.11,573.583,570.841,0.0
55653.0,STARLINK-5067,PAYLOAD,2024-01-30 04:50:36,14.98305088,0.0002636,70.0023,324.4442,247.2079,112.8801,0.00031241,3.634e-05,0.0,0 STARLINK-5067,1 55653U 23021AB  24030.20181617  .00003634  00000-0  31241-3 0  9997,2 55653  70.0023 324.4442 0002636 247.2079 112.8801 14.98305088 53239,6950.27,96.109,573.967,570.303,0.0
55653.0,STARLINK-5067,PAYLOAD,2024-01-30 19:15:48,14.98346692,0.0003415,69.9997,322.9299,272.7775,87.2993,-1.915e-06,-1.16e-06,0.0,0 STARLINK-5067,1 55653U 23021AB  24030.80264135 -.00000116  00000-0 -19150-5 0  9991,2 55653  69.9997 322.9299 0003415 272.7775  87.2993 14.98346692 53324,6950.141,96.106,574.38,569.633,0.0
55653.0,STARLINK-5067,PAYLOAD,2024-01-30 22:28:03,14.98351289,0.0003255,70.0,322.593,270.2489,89.8297,5.1866e-05,5.26e-06,0.0,0 STARLINK-5067,1 55653U 23021AB  24030.93615472  .00000526  00000-0  51866-4 0  9991,2 55653  70.0000 322.5930 0003255 270.2489  89.8297 14.98351289 53645,6950.127,96.106,574.254,569.73,0.0
55653.0,STARLINK-5067,PAYLOAD,2024-01-31 03:16:27,14.98350273,0.0002438,70.0024,322.0912,244.1388,115.952,0.00011073,1.229e-05,0.0,0 STARLINK-5067,1 55653U 23021AB  24031.13642999  .00001229  00000-0  11073-3 0  9994,2 55653  70.0024 322.0912 0002438 244.1388 115.9520 14.98350273 53378,6950.13,96.106,573.69,570.301,0.0
55653.0,STARLINK-5067,PAYLOAD,2024-01-31 04:52:35,14.98351094,0.0002458,70.0023,321.9227,247.0046,113.0854,0.00011516,1.282e-05,0.0,0 STARLINK-5067,1 55653U 23021AB  24031.20318869  .00001282  00000-0  11516-3 0  9999,2 55653  70.0023 321.9227 0002458 247.0046 113.0854 14.98351094 53684,6950.128,96.106,573.701,570.284,0.0
55653.0,STARLINK-5067,PAYLOAD,2024-01-31 19:17:44,14.9838692,0.0003288,69.9997,320.4056,270.187,89.8913,0.00045186,5.311e-05,0.0,0 STARLINK-5067,1 55653U 23021AB  24031.80398405  .00005311  00000-0  45186-3 0  9996,2 55653  69.9997 320.4056 0003288 270.1870  89.8913 14.98386920 53478,6950.017,96.103,574.167,569.597,0.0
55653.0,STARLINK-5067,PAYLOAD,2024-02-01 03:18:29,14.98318532,0.0002716,70.0008,319.566,267.0445,93.0404,-0.000238,-2.931e-05,0.0,0 STARLINK-5067,1 55653U 23021AB  24032.13783922 -.00002931  00000-0 -23800-3 0  9991,2 55653  70.0008 319.5660 0002716 267.0445  93.0404 14.98318532 53524,6950.228,96.108,573.981,570.206,0.0
55653.0,STARLINK-5067,PAYLOAD,2024-02-01 04:54:36,14.98325623,0.0003381,69.9994,319.3965,265.5177,94.5596,-0.00024866,-3.058e-05,0.0,0 STARLINK-5067,1 55653U 23021AB  24032.20459350 -.00003058  00000-0 -24866-3 0  9998,2 55653  69.9994 319.3965 0003381 265.5177  94.5596 14.98325623 53533,6950.206,96.107,574.421,569.722,0.0
55653.0,STARLINK-5067,PAYLOAD,2024-02-02 03:20:29,14.98331582,0.0003122,70.0,317.0392,258.1914,101.8895,-0.00028041,-3.437e-05,0.0,0 STARLINK-5067,1 55653U 23021AB  24033.13922936 -.00003437  00000-0 -28041-3 0  9996,2 55653  70.0000 317.0392 0003122 258.1914 101.8895 14.98331582 53673,6950.188,96.107,574.223,569.883,0.0
55653.0,STARLINK-5067,PAYLOAD,2024-02-02 04:56:37,14.98332134,0.0003028,70.0003,316.8718,257.6314,102.4506,-0.0002701,-3.314e-05,0.0,0 STARLINK-5067,1 55653U 23021AB  24033.20598891 -.00003314  00000-0 -27010-3 0  9992,2 55653  70.0003 316.8718 0003028 257.6314 102.4506 14.98332134 53982,6950.186,96.107,574.156,569.947,0.0
55653.0,STARLINK-5067,PAYLOAD,2024-02-02 22:34:05,14.98310812,0.0003036,70.0,315.0202,259.9846,100.0971,0.00017779,2.028e-05,0.0,0 STARLINK-5067,1 55653U 23021AB  24033.94034665  .00002028  00000-0  17779-3 0  9997,2 55653  70.0000 315.0202 0003036 259.9846 100.0971 14.98310812 54094,6950.252,96.108,574.227,570.007,0.0
55653.0,STARLINK-5067,PAYLOAD,2024-02-03 03:22:30,14.98314195,0.0002863,70.0002,314.5155,260.0308,100.0528,0.00022216,2.558e-05,0.0,0 STARLINK-5067,1 55653U 23021AB  24034.14062639  .00002558  00000-0  22216-3 0  9992,2 55653  70.0002 314.5155 0002863 260.0308 100.0528 14.98314195 53826,6950.242,96.108,574.097,570.117,0.0
55653.0,STARLINK-5067,PAYLOAD,2024-02-03 04:58:38,14.9831516,0.0002868,70.0001,314.3465,260.6262,99.4573,0.00023264,2.683e-05,0.0,0 STARLINK-5067,1 55653U 23021AB  24034.20738678  .00002683  00000-0  23264-3 0  9995,2 55653  70.0001 314.3465 0002868 260.6262  99.4573 14.98315160 54136,6950.239,96.108,574.097,570.11,0.0
55653.0,STARLINK-5067,PAYLOAD,2024-02-03 22:36:07,14.98326702,0.0002789,70.0003,312.4941,268.071,92.0129,0.00013256,1.489e-05,0.0,0 STARLINK-5067,1 55653U 23021AB  24034.94174840  .00001489  00000-0  13256-3 0  9994,2 55653  70.0003 312.4941 0002789 268.0710  92.0129 14.98326702 54240,6950.203,96.107,574.007,570.13,0.0
55653.0,STARLINK-5067,PAYLOAD,2024-02-04 03:24:30,14.98330792,0.0002696,70.0003,311.9894,264.2592,95.826,0.00017343,1.977e-05,0.0,0 STARLINK-5067,1 55653U 23021AB  24035.14202519  .00001977  00000-0  17343-3 0  9995,2 55653  70.0003 311.9894 0002696 264.2592  95.8260 14.98330792 53974,6950.19,96.107,573.929,570.182,0.0
55653.0,STARLINK-5067,PAYLOAD,2024-02-04 05:00:38,14.98332899,0.0002699,70.0003,311.8207,264.9221,95.163,0.00019679,2.256e-05,0.0,0 STARLINK-5067,1 55653U 23021AB  24035.20878408  .00002256  00000-0  19679-3 0  9993,2 55653  70.0003 311.8207 0002699 264.9221  95.1630 14.98332899 54289,6950.184,96.107,573.925,570.173,0.0
55653.0,STARLINK-5067,PAYLOAD,2024-02-04 19:25:52,14.98326353,0.0002548,70.0005,310.3065,257.1961,102.8914,7.2921e-05,7.77e-06,0.0,0 STARLINK-5067,1 55653U 23021AB  24035.80963235  .00000777  00000-0  72921-4 0  9998,2 55653  70.0005 310.3065 0002548 257.1961 102.8914 14.98326353 54071,6950.204,96.107,573.84,570.298,0.0
55653.0,STARLINK-5067,PAYLOAD,2024-02-04 22:38:08,14.98325209,0.0002539,70.0006,309.9693,255.4404,104.6473,6.0187e-05,6.25e-06,0.0,0 STARLINK-5067,1 55653U 23021AB  24035.94315332  .00000625  00000-0  60187-4 0  9995,2 55653  70.0006 309.9693 0002539 255.4404 104.6473 14.98325209 54390,6950.208,96.107,573.837,570.308,0.0
55653.0,STARLINK-5067,PAYLOAD,2024-02-05 11:27:12,14.98331327,0.0002785,70.0,308.6224,269.6351,90.4489,6.3057e-05,6.6e-06,0.0,0 STARLINK-5067,1 55653U 23021AB  24036.47723075  .00000660  00000-0  63057-4 0  9999,2 55653  70.0000 308.6224 0002785 269.6351  90.4489 14.98331327 54477,6950.189,96.107,573.989,570.118,0.0
55653.0,STARLINK-5067,PAYLOAD,2024-02-05 19:27:53,14.983336,0.0002875,69.9996,307.7805,268.1454,91.9376,1.2442e-05,5.5e-07,0.0,0 STARLINK-5067,1 55653U 23021AB  24036.81103028  .00000055  00000-0  12442-4 0  9997,2 55653  69.9996 307.7805 0002875 268.1454  91.9376 14.98333600 54221,6950.182,96.107,574.045,570.049,0.0
55653.0,STARLINK-5067,PAYLOAD,2024-02-05 22:40:09,14.98333844,0.0002838,69.9998,307.4436,268.7253,91.3581,3.4763e-05,3.22e-06,0.0,0 STARLINK-5067,1 55653U 23021AB  24036.94454942  .00000322  00000-0  34763-4 0  9992,2 55653  69.9998 307.4436 0002838 268.7253  91.3581 14.98333844 54549,6950.181,96.107,574.018,570.074,0.0
55653.0,STARLINK-5067,PAYLOAD,2024-02-06 03:28:32,14.98338806,0.0002769,70.0,306.9392,268.0117,92.0725,8.6383e-05,9.38e-06,0.0,0 STARLINK-5067,1 55653U 23021AB  24037.14482467  .00000938  00000-0  86383-4 0  9996,2 55653  70.0000 306.9392 0002769 268.0117  92.0725 14.98338806 54277,6950.166,96.106,573.955,570.106,0.0
55653.0,STARLINK-5067,PAYLOAD,2024-02-06 19:29:53,14.98331756,0.000278,70.0002,305.2556,268.1046,91.9795,7.6052e-05,8.15e-06,0.0,0 STARLINK-5067,1 55653U 23021AB  24037.81242835  .00000815  00000-0  76052-4 0  9999,2 55653  70.0002 305.2556 0002780 268.1046  91.9795 14.98331756 54371,6950.187,96.107,573.985,570.12,0.0
55653.0,STARLINK-5067,PAYLOAD,2024-02-06 22:42:09,14.9833142,0.0002848,70.0002,304.9187,268.8888,91.1944,8.6195e-05,9.36e-06,0.0,0 STARLINK-5067,1 55653U 23021AB  24037.94594842  .00000936  00000-0  86195-4 0  9994,2 55653  70.0002 304.9187 0002848 268.8888  91.1944 14.98331420 54694,6950.188,96.107,574.033,570.074,0.0
55653.0,STARLINK-5067,PAYLOAD,2024-02-07 03:30:31,14.98360141,0.0003042,69.9996,304.4149,266.9142,93.1669,0.0003893,4.559e-05,0.0,0 STARLINK-5067,1 55653U 23021AB  24038.14620262  .00004559  00000-0  38930-3 0  9991,2 55653  69.9996 304.4149 0003042 266.9142  93.1669 14.98360141 54424,6950.1,96.105,574.079,569.85,0.0
55653.0,STARLINK-5067,PAYLOAD,2024-02-07 11:31:13,14.98338026,0.0002588,70.0001,303.5723,275.6559,84.4305,0.00010453,1.155e-05,0.0,0 STARLINK-5067,1 55653U 23021AB  24038.48002202  .00001155  00000-0  10453-3 0  9995,2 55653  70.0001 303.5723 0002588 275.6559  84.4305 14.98338026 54477,6950.168,96.106,573.832,570.234,0.0
55653.0,STARLINK-5067,PAYLOAD,2024-02-07 19:31:56,14.98310851,0.0003096,70.0001,302.7309,271.401,88.6794,-0.00021405,-2.645e-05,0.0,0 STARLINK-5067,1 55653U 23021AB  24038.81384569 -.00002645  00000-0 -21405-3 0  9997,2 55653  70.0001 302.7309 0003096 271.4010  88.6794 14.98310851 54529,6950.252,96.108,574.269,569.965,0.0
